start=new Date('2022-10-12T00:00:00.000Z').valueOf();
sats=[{"OBJECT_ID":"2020-012Q","REV_AT_EPOCH":"14722","MEAN_MOTION":"15.06377221","SITE":"AFETR","ECCENTRICITY":"0.00014080","FILE":"3604484","LAUNCH_DATE":"2020-02-17","PERIAPSIS":"546.308","APOAPSIS":"548.258","TIME_SYSTEM":"UTC","MEAN_MOTION_DOT":"-0.00002356","TLE_LINE1":"1 45192U 20012Q   22284.90244768 -.00002356  00000-0 -13943-3 0  9995","GP_ID":"214820222","DECAY_DATE":null,"MEAN_ELEMENT_THEORY":"SGP4","SEMIMAJOR_AXIS":"6925.418","MEAN_MOTION_DDOT":"0.0000000000000","COUNTRY_CODE":"US","INCLINATION":"53.0563","EPHEMERIS_TYPE":"0","TLE_LINE2":"2 45192  53.0563 234.6886 0001408  79.8063 280.3084 15.06377221147223","RA_OF_ASC_NODE":"234.6886","OBJECT_NAME":"STARLINK-1237","PERIOD":"95.594","BSTAR":"-0.00013943000000","EPOCH":"2022-10-11T21:39:31.479552","RCS_SIZE":"LARGE","OBJECT_TYPE":"PAYLOAD","MEAN_ANOMALY":"280.3084","CLASSIFICATION_TYPE":"U","REF_FRAME":"TEME","CENTER_NAME":"EARTH","ARG_OF_PERICENTER":"79.8063","NORAD_CAT_ID":"45192","ELEMENT_SET_NO":"999"},{"TLE_LINE2":"2 45193  53.0548 237.1242 0001643  66.8075 293.3087 15.06391958147085","EPHEMERIS_TYPE":"0","INCLINATION":"53.0548","COUNTRY_CODE":"US","BSTAR":"-0.00004355900000","PERIOD":"95.593","OBJECT_NAME":"STARLINK-1239","RA_OF_ASC_NODE":"237.1242","RCS_SIZE":"LARGE","EPOCH":"2022-10-11T08:39:14.637312","OBJECT_TYPE":"PAYLOAD","MEAN_ANOMALY":"293.3087","CENTER_NAME":"EARTH","REF_FRAME":"TEME","CLASSIFICATION_TYPE":"U","ELEMENT_SET_NO":"999","NORAD_CAT_ID":"45193","ARG_OF_PERICENTER":"66.8075","ECCENTRICITY":"0.00016430","SITE":"AFETR","MEAN_MOTION":"15.06391958","OBJECT_ID":"2020-012R","REV_AT_EPOCH":"14708","APOAPSIS":"548.376","LAUNCH_DATE":"2020-02-17","PERIAPSIS":"546.100","FILE":"3603543","MEAN_MOTION_DOT":"-0.00000930","TIME_SYSTEM":"UTC","DECAY_DATE":null,"TLE_LINE1":"1 45193U 20012R   22284.36058608 -.00000930  00000-0 -43559-4 0  9995","GP_ID":"214778500","SEMIMAJOR_AXIS":"6925.373","MEAN_ELEMENT_THEORY":"SGP4","MEAN_MOTION_DDOT":"0.0000000000000"},{"RCS_SIZE":"LARGE","EPOCH":"2022-10-11T21:28:53.323104","BSTAR":"0.00004085800000","PERIOD":"95.593","OBJECT_NAME":"STARLINK-1240","RA_OF_ASC_NODE":"234.7217","EPHEMERIS_TYPE":"0","TLE_LINE2":"2 45194  53.0543 234.7217 0002280  60.9799 299.1418 15.06386903147112","INCLINATION":"53.0543","COUNTRY_CODE":"US","ELEMENT_SET_NO":"999","NORAD_CAT_ID":"45194","ARG_OF_PERICENTER":"60.9799","REF_FRAME":"TEME","CENTER_NAME":"EARTH","CLASSIFICATION_TYPE":"U","MEAN_ANOMALY":"299.1418","OBJECT_TYPE":"PAYLOAD","LAUNCH_DATE":"2020-02-17","APOAPSIS":"548.833","PERIAPSIS":"545.675","FILE":"3604484","ECCENTRICITY":"0.00022800","SITE":"AFETR","REV_AT_EPOCH":"14711","OBJECT_ID":"2020-012S","MEAN_MOTION":"15.06386903","MEAN_MOTION_DDOT":"0.0000000000000","SEMIMAJOR_AXIS":"6925.389","MEAN_ELEMENT_THEORY":"SGP4","DECAY_DATE":null,"TLE_LINE1":"1 45194U 20012S   22284.89506161  .00000327  00000-0  40858-4 0  9993","GP_ID":"214818723","TIME_SYSTEM":"UTC","MEAN_MOTION_DOT":"0.00000327"},{"CLASSIFICATION_TYPE":"U","CENTER_NAME":"EARTH","REF_FRAME":"TEME","NORAD_CAT_ID":"45195","ELEMENT_SET_NO":"999","ARG_OF_PERICENTER":"89.3784","OBJECT_TYPE":"PAYLOAD","MEAN_ANOMALY":"270.7567","RCS_SIZE":"LARGE","EPOCH":"2022-10-11T06:15:06.323904","INCLINATION":"53.0495","TLE_LINE2":"2 45195  53.0495 231.6282 0003127  89.3784 270.7567 15.14381322147206","EPHEMERIS_TYPE":"0","COUNTRY_CODE":"US","PERIOD":"95.088","BSTAR":"0.00275560000000","RA_OF_ASC_NODE":"231.6282","OBJECT_NAME":"STARLINK-1241","SEMIMAJOR_AXIS":"6900.994","MEAN_ELEMENT_THEORY":"SGP4","MEAN_MOTION_DDOT":"0.0000000000000","MEAN_MOTION_DOT":"0.00051226","TIME_SYSTEM":"UTC","DECAY_DATE":null,"GP_ID":"214779501","TLE_LINE1":"1 45195U 20012T   22284.26048986  .00051226  00000-0  27556-2 0  9993","SITE":"AFETR","ECCENTRICITY":"0.00031270","REV_AT_EPOCH":"14720","MEAN_MOTION":"15.14381322","OBJECT_ID":"2020-012T","LAUNCH_DATE":"2020-02-17","PERIAPSIS":"520.702","APOAPSIS":"525.017","FILE":"3603543"},{"ELEMENT_SET_NO":"999","NORAD_CAT_ID":"45196","ARG_OF_PERICENTER":"71.0942","CENTER_NAME":"EARTH","REF_FRAME":"TEME","CLASSIFICATION_TYPE":"U","MEAN_ANOMALY":"289.0207","OBJECT_TYPE":"PAYLOAD","RCS_SIZE":"LARGE","EPOCH":"2022-10-11T21:02:21.362496","BSTAR":"-0.00012222000000","PERIOD":"95.593","OBJECT_NAME":"STARLINK-1244","RA_OF_ASC_NODE":"234.8090","EPHEMERIS_TYPE":"0","TLE_LINE2":"2 45196  53.0551 234.8090 0001483  71.0942 289.0207 15.06386057147260","INCLINATION":"53.0551","COUNTRY_CODE":"US","MEAN_MOTION_DDOT":"0.0000000000000","SEMIMAJOR_AXIS":"6925.391","MEAN_ELEMENT_THEORY":"SGP4","DECAY_DATE":null,"GP_ID":"214819723","TLE_LINE1":"1 45196U 20012U   22284.87663614 -.00002101  00000-0 -12222-3 0  9997","TIME_SYSTEM":"UTC","MEAN_MOTION_DOT":"-0.00002101","LAUNCH_DATE":"2020-02-17","PERIAPSIS":"546.229","APOAPSIS":"548.283","FILE":"3604484","ECCENTRICITY":"0.00014830","SITE":"AFETR","OBJECT_ID":"2020-012U","MEAN_MOTION":"15.06386057","REV_AT_EPOCH":"14726"},{"RCS_SIZE":"LARGE","EPOCH":"2022-10-11T20:46:25.980672","INCLINATION":"53.0540","TLE_LINE2":"2 45197  53.0540 234.8547 0001430  59.1566 300.9563 15.06381075147181","EPHEMERIS_TYPE":"0","COUNTRY_CODE":"US","PERIOD":"95.593","BSTAR":"-0.00005827500000","RA_OF_ASC_NODE":"234.8547","OBJECT_NAME":"STARLINK-1269","CLASSIFICATION_TYPE":"U","REF_FRAME":"TEME","CENTER_NAME":"EARTH","NORAD_CAT_ID":"45197","ELEMENT_SET_NO":"999","ARG_OF_PERICENTER":"59.1566","OBJECT_TYPE":"PAYLOAD","MEAN_ANOMALY":"300.9563","SITE":"AFETR","ECCENTRICITY":"0.00014300","REV_AT_EPOCH":"14718","MEAN_MOTION":"15.06381075","OBJECT_ID":"2020-012V","PERIAPSIS":"546.281","LAUNCH_DATE":"2020-02-17","APOAPSIS":"548.262","FILE":"3604484","SEMIMAJOR_AXIS":"6925.407","MEAN_ELEMENT_THEORY":"SGP4","MEAN_MOTION_DDOT":"0.0000000000000","TIME_SYSTEM":"UTC","MEAN_MOTION_DOT":"-0.00001149","DECAY_DATE":null,"GP_ID":"214820473","TLE_LINE1":"1 45197U 20012V   22284.86557848 -.00001149  00000-0 -58275-4 0  9998"},{"SITE":"AFETR","ECCENTRICITY":"0.00013530","MEAN_MOTION":"15.06375751","REV_AT_EPOCH":"14655","OBJECT_ID":"2020-012W","APOAPSIS":"548.225","LAUNCH_DATE":"2020-02-17","PERIAPSIS":"546.351","FILE":"3603952","MEAN_MOTION_DOT":"-0.00001015","TIME_SYSTEM":"UTC","DECAY_DATE":null,"GP_ID":"214790714","TLE_LINE1":"1 45198U 20012W   22284.85636907 -.00001015  00000-0 -49312-4 0  9996","SEMIMAJOR_AXIS":"6925.423","MEAN_ELEMENT_THEORY":"SGP4","MEAN_MOTION_DDOT":"0.0000000000000","INCLINATION":"53.0560","EPHEMERIS_TYPE":"0","TLE_LINE2":"2 45198  53.0560 214.9006 0001353 102.8732 257.2408 15.06375751146554","COUNTRY_CODE":"US","PERIOD":"95.594","BSTAR":"-0.00004931200000","RA_OF_ASC_NODE":"214.9006","OBJECT_NAME":"STARLINK-1154","RCS_SIZE":"LARGE","EPOCH":"2022-10-11T20:33:10.287648","OBJECT_TYPE":"PAYLOAD","MEAN_ANOMALY":"257.2408","CLASSIFICATION_TYPE":"U","REF_FRAME":"TEME","CENTER_NAME":"EARTH","NORAD_CAT_ID":"45198","ELEMENT_SET_NO":"999","ARG_OF_PERICENTER":"102.8732"},{"CLASSIFICATION_TYPE":"U","CENTER_NAME":"EARTH","REF_FRAME":"TEME","NORAD_CAT_ID":"45199","ELEMENT_SET_NO":"999","ARG_OF_PERICENTER":"96.6749","OBJECT_TYPE":"PAYLOAD","MEAN_ANOMALY":"263.4393","RCS_SIZE":"LARGE","EPOCH":"2022-10-11T19:02:55.941792","INCLINATION":"53.0551","TLE_LINE2":"2 45199  53.0551 215.1808 0001343  96.6749 263.4393 15.06387209146547","EPHEMERIS_TYPE":"0","COUNTRY_CODE":"US","PERIOD":"95.593","BSTAR":"0.00011190000000","RA_OF_ASC_NODE":"215.1808","OBJECT_NAME":"STARLINK-1197","SEMIMAJOR_AXIS":"6925.388","MEAN_ELEMENT_THEORY":"SGP4","MEAN_MOTION_DDOT":"0.0000000000000","TIME_SYSTEM":"UTC","MEAN_MOTION_DOT":"0.00001385","DECAY_DATE":null,"GP_ID":"214790486","TLE_LINE1":"1 45199U 20012X   22284.79370303  .00001385  00000-0  11190-3 0  9995","SITE":"AFETR","ECCENTRICITY":"0.00013430","MEAN_MOTION":"15.06387209","OBJECT_ID":"2020-012X","REV_AT_EPOCH":"14654","LAUNCH_DATE":"2020-02-17","APOAPSIS":"548.183","PERIAPSIS":"546.323","FILE":"3603938"},{"EPHEMERIS_TYPE":"0","TLE_LINE2":"2 45201  53.0552 215.1353 0001446  88.9714 271.1441 15.06388844147487","INCLINATION":"53.0552","COUNTRY_CODE":"US","BSTAR":"-0.00005367000000","PERIOD":"95.593","OBJECT_NAME":"STARLINK-1199","RA_OF_ASC_NODE":"215.1353","RCS_SIZE":"LARGE","EPOCH":"2022-10-11T19:13:32.513664","OBJECT_TYPE":"PAYLOAD","MEAN_ANOMALY":"271.1441","REF_FRAME":"TEME","CENTER_NAME":"EARTH","CLASSIFICATION_TYPE":"U","ELEMENT_SET_NO":"999","NORAD_CAT_ID":"45201","ARG_OF_PERICENTER":"88.9714","ECCENTRICITY":"0.00014460","SITE":"AFETR","OBJECT_ID":"2020-012Z","REV_AT_EPOCH":"14748","MEAN_MOTION":"15.06388844","LAUNCH_DATE":"2020-02-17","PERIAPSIS":"546.246","APOAPSIS":"548.249","FILE":"3604484","TIME_SYSTEM":"UTC","MEAN_MOTION_DOT":"-0.00001081","DECAY_DATE":null,"GP_ID":"214820223","TLE_LINE1":"1 45201U 20012Z   22284.80107076 -.00001081  00000-0 -53670-4 0  9991","SEMIMAJOR_AXIS":"6925.383","MEAN_ELEMENT_THEORY":"SGP4","MEAN_MOTION_DDOT":"0.0000000000000"},{"RCS_SIZE":"LARGE","EPOCH":"2022-10-11T19:46:35.321088","EPHEMERIS_TYPE":"0","TLE_LINE2":"2 45202  52.9809 210.7626 0003441 127.5771 232.5536 15.20329932146568","INCLINATION":"52.9809","COUNTRY_CODE":"US","BSTAR":"0.00231350000000","PERIOD":"94.716","OBJECT_NAME":"STARLINK-1203","RA_OF_ASC_NODE":"210.7626","REF_FRAME":"TEME","CENTER_NAME":"EARTH","CLASSIFICATION_TYPE":"U","ELEMENT_SET_NO":"999","NORAD_CAT_ID":"45202","ARG_OF_PERICENTER":"127.5771","OBJECT_TYPE":"PAYLOAD","MEAN_ANOMALY":"232.5536","ECCENTRICITY":"0.00034410","SITE":"AFETR","MEAN_MOTION":"15.20329932","OBJECT_ID":"2020-012AA","REV_AT_EPOCH":"14656","LAUNCH_DATE":"2020-02-17","APOAPSIS":"507.215","PERIAPSIS":"502.478","FILE":"3603939","SEMIMAJOR_AXIS":"6882.982","MEAN_ELEMENT_THEORY":"SGP4","MEAN_MOTION_DDOT":"0.0000000000000","MEAN_MOTION_DOT":"0.00050984","TIME_SYSTEM":"UTC","DECAY_DATE":null,"GP_ID":"214790509","TLE_LINE1":"1 45202U 20012AA  22284.82401992  .00050984  00000-0  23135-2 0  9993"}];
